[{"OBJECT_NAME":"ZY-1 02E","OBJECT_ID":"2021-131A","EPOCH":"2026-03-09T22:55:04.304352","MEAN_MOTION":14.35395613,"ECCENTRICITY":0.00020992,"INCLINATION":98.4486,"RA_OF_ASC_NODE":148.1308,"ARG_OF_PERICENTER":78.1274,"MEAN_ANOMALY":282.0147,"EPHEMERIS_TYPE":0,"CLASSIFICATION_TYPE":"U","NORAD_CAT_ID":50465,"ELEMENT_SET_NO":999,"REV_AT_EPOCH":22018,"BSTAR":4.2056084e-5,"MEAN_MOTION_DOT":7.8e-7,"MEAN_MOTION_DDOT":0},{"OBJECT_NAME":"NOAA 16 DEB","OBJECT_ID":"2000-055KB","EPOCH":"2026-03-09T13:04:56.293536","MEAN_MOTION":14.37621177,"ECCENTRICITY":0.00169747,"INCLINATION":98.8128,"RA_OF_ASC_NODE":189.2891,"ARG_OF_PERICENTER":156.2792,"MEAN_ANOMALY":203.918,"EPHEMERIS_TYPE":0,"CLASSIFICATION_TYPE":"U","NORAD_CAT_ID":41398,"ELEMENT_SET_NO":999,"REV_AT_EPOCH":51993,"BSTAR":0.0022248034,"MEAN_MOTION_DOT":6.649e-5,"MEAN_MOTION_DDOT":0}]
